ONEWEB-0634             
1 56075U 23043AF  25253.18186876  .00000064  00000+0  13568-3 0  9992
2 56075  87.9046 315.1017 0001879 107.7464 252.3871 13.15549888119585
ONEWEB-0635             
1 56076U 23043AG  25253.17712438  .00000132  00000+0  31626-3 0  9992
2 56076  87.9026 315.0662 0002009  89.2435 270.8926 13.15548820119612
ONEWEB-0636             
1 56077U 23043AH  25253.16919847  .00000164  00000+0  40082-3 0  9996
2 56077  87.9033 315.0841 0001976  90.8185 269.3172 13.15549541119596
ONEWEB-0637             
1 56078U 23043AJ  25253.46710335  .00000238  00000+0  59683-3 0  9990
2 56078  87.9037 315.0378 0002248  97.2683 262.8703 13.15548740119658
ONEWEB-0647             
1 56079U 23043AK  25253.46233066  .00000187  00000+0  46389-3 0  9994
2 56079  87.9039 315.0515 0001773  91.1942 268.9391 13.15549405119645
ONEWEB-0651             
1 56080U 23043AL  25252.62095557  .00000176  00000+0  43387-3 0  9997
2 56080  87.9049 315.2099 0002142  93.4120 266.7256 13.15547602120736
ONEWEB-0718             
1 56081U 23043AM  25253.45283455  .00000064  00000+0  13715-3 0  9994
2 56081  87.9039 315.0259 0002052 114.0319 246.1026 13.15548919119650
ONEWEB-0561             
1 56710U 23068A   25253.20066819  .00000017  00000+0  89596-5 0  9996
2 56710  87.9278 330.2724 0001941  83.4265 276.7090 13.20769913112541
